IRIDIUM 39              
1 25042U 97069D   25193.74506787  .00000381  00000+0  94378-4 0  9994
2 25042  86.3923 200.1778 0016349 215.6409 144.3705 14.49240342452661
IRIDIUM 38              
1 25043U 97069E   25193.49568972  .00000268  00000+0  81957-4 0  9994
2 25043  86.3948 222.5096 0003385  56.8282 303.3241 14.38132172449599
IRIDIUM 42              
1 25077U 97077A   25193.53297485  .00000268  00000+0  84968-4 0  9998
2 25077  86.3950 228.6942 0002784  77.8464 282.3045 14.36366348444835
IRIDIUM 44              
1 25078U 97077B   25194.11378878  .00000245  00000+0  71179-4 0  9995
2 25078  86.3959 210.3117 0001273  34.8085 325.3197 14.40255985447468
IRIDIUM 45              
1 25104U 97082A   25193.48887432  .00010363  00000+0  36716-3 0  9990
2 25104  86.3561  35.5961 0113344 236.1389 122.9031 15.22947810455898
IRIDIUM 24              
1 25105U 97082B   25193.91474052  .00000380  00000+0  10961-3 0  9991
2 25105  86.3881  69.3863 0011508   4.1697 355.9596 14.42117960446928
IRIDIUM 51              
1 25262U 98018A   25194.08165860  .00030082  00000+0  63652-3 0  9995
2 25262  86.3802  42.9942 0085402 149.1827 211.4482 15.41058661451231
IRIDIUM 57              
1 25273U 98019B   25193.88641801  .00000253  00000+0  80405-4 0  9992
2 25273  86.3988 134.4988 0002271  83.2947 276.8508 14.35906414428473
